CCSDS_OMM_VERS = 2.0
CREATION_DATE  = 
ORIGINATOR     = 

OBJECT_NAME    = STARLINK-36404
OBJECT_ID      = 2026-022S
CENTER_NAME    = EARTH
REF_FRAME      = TEME
TIME_SYSTEM    = UTC
MEAN_ELEMENT_THEORY = SGP/SGP4

EPOCH          = 2026-02-15T04:00:01.999584
MEAN_MOTION    = 15.81213199
ECCENTRICITY   = .0001681
INCLINATION    = 97.2790
RA_OF_ASC_NODE = 79.0582
ARG_OF_PERICENTER = 61.0692
MEAN_ANOMALY   = 352.8369

EPHEMERIS_TYPE = 0
CLASSIFICATION_TYPE = U
NORAD_CAT_ID   = 67664
ELEMENT_SET_NO = 999
REV_AT_EPOCH   = 324
BSTAR          = -.11548E-1
MEAN_MOTION_DOT = -.1960373E-1
MEAN_MOTION_DDOT = 0

CCSDS_OMM_VERS = 2.0
CREATION_DATE  = 
ORIGINATOR     = 

OBJECT_NAME    = STARLINK-36399
OBJECT_ID      = 2026-022T
CENTER_NAME    = EARTH
REF_FRAME      = TEME
TIME_SYSTEM    = UTC
MEAN_ELEMENT_THEORY = SGP/SGP4

EPOCH          = 2026-02-15T04:00:01.999584
MEAN_MOTION    = 15.81154042
ECCENTRICITY   = .000174
INCLINATION    = 97.2792
RA_OF_ASC_NODE = 79.0608
ARG_OF_PERICENTER = 61.6950
MEAN_ANOMALY   = 356.7680

EPHEMERIS_TYPE = 0
CLASSIFICATION_TYPE = U
NORAD_CAT_ID   = 67665
ELEMENT_SET_NO = 999
REV_AT_EPOCH   = 324
BSTAR          = -.12074E-1
MEAN_MOTION_DOT = -.2032405E-1
MEAN_MOTION_DDOT = 0

CCSDS_OMM_VERS = 2.0
CREATION_DATE  = 
ORIGINATOR     = 

OBJECT_NAME    = STARLINK-36365
OBJECT_ID      = 2026-022U
CENTER_NAME    = EARTH
REF_FRAME      = TEME
TIME_SYSTEM    = UTC
MEAN_ELEMENT_THEORY = SGP/SGP4

EPOCH          = 2026-02-15T04:00:01.999584
MEAN_MOTION    = 15.81316503
ECCENTRICITY   = .000118
INCLINATION    = 97.2793
RA_OF_ASC_NODE = 79.0641
ARG_OF_PERICENTER = 70.6921
MEAN_ANOMALY   = 354.8153

EPHEMERIS_TYPE = 0
CLASSIFICATION_TYPE = U
NORAD_CAT_ID   = 67666
ELEMENT_SET_NO = 999
REV_AT_EPOCH   = 327
BSTAR          = -.11535E-1
MEAN_MOTION_DOT = -.1966206E-1
MEAN_MOTION_DDOT = 0

CCSDS_OMM_VERS = 2.0
CREATION_DATE  = 
ORIGINATOR     = 

OBJECT_NAME    = STARLINK-36622
OBJECT_ID      = 2026-022V
CENTER_NAME    = EARTH
REF_FRAME      = TEME
TIME_SYSTEM    = UTC
MEAN_ELEMENT_THEORY = SGP/SGP4

EPOCH          = 2026-02-15T04:00:01.999584
MEAN_MOTION    = 15.81308849
ECCENTRICITY   = .0001206
INCLINATION    = 97.2803
RA_OF_ASC_NODE = 79.0670
ARG_OF_PERICENTER = 49.6218
MEAN_ANOMALY   = 23.4672

EPHEMERIS_TYPE = 0
CLASSIFICATION_TYPE = U
NORAD_CAT_ID   = 67667
ELEMENT_SET_NO = 999
REV_AT_EPOCH   = 327
BSTAR          = -.75377E-2
MEAN_MOTION_DOT = -.1300906E-1
MEAN_MOTION_DDOT = 0

CCSDS_OMM_VERS = 2.0
CREATION_DATE  = 
ORIGINATOR     = 

OBJECT_NAME    = STARLINK-36625
OBJECT_ID      = 2026-022W
CENTER_NAME    = EARTH
REF_FRAME      = TEME
TIME_SYSTEM    = UTC
MEAN_ELEMENT_THEORY = SGP/SGP4

EPOCH          = 2026-02-15T04:00:01.999584
MEAN_MOTION    = 15.81291499
ECCENTRICITY   = .0001913
INCLINATION    = 97.2800
RA_OF_ASC_NODE = 79.0703
ARG_OF_PERICENTER = 51.7697
MEAN_ANOMALY   = 29.6721

EPHEMERIS_TYPE = 0
CLASSIFICATION_TYPE = U
NORAD_CAT_ID   = 67668
ELEMENT_SET_NO = 999
REV_AT_EPOCH   = 327
BSTAR          = -.79949E-2
MEAN_MOTION_DOT = -.1369308E-1
MEAN_MOTION_DDOT = 0

CCSDS_OMM_VERS = 2.0
CREATION_DATE  = 
ORIGINATOR     = 

OBJECT_NAME    = STARLINK-36639
OBJECT_ID      = 2026-022X
CENTER_NAME    = EARTH
REF_FRAME      = TEME
TIME_SYSTEM    = UTC
MEAN_ELEMENT_THEORY = SGP/SGP4

EPOCH          = 2026-02-15T04:00:01.999584
MEAN_MOTION    = 15.81061523
ECCENTRICITY   = .0001988
INCLINATION    = 97.2788
RA_OF_ASC_NODE = 79.0740
ARG_OF_PERICENTER = 79.3743
MEAN_ANOMALY   = 10.0606

EPHEMERIS_TYPE = 0
CLASSIFICATION_TYPE = U
NORAD_CAT_ID   = 67669
ELEMENT_SET_NO = 999
REV_AT_EPOCH   = 327
BSTAR          = -.3308E-2
MEAN_MOTION_DOT = -.599038E-2
MEAN_MOTION_DDOT = 0

CCSDS_OMM_VERS = 2.0
CREATION_DATE  = 
ORIGINATOR     = 

OBJECT_NAME    = STARLINK-36596
OBJECT_ID      = 2026-022Y
CENTER_NAME    = EARTH
REF_FRAME      = TEME
TIME_SYSTEM    = UTC
MEAN_ELEMENT_THEORY = SGP/SGP4

EPOCH          = 2026-02-15T04:00:01.999584
MEAN_MOTION    = 15.80864734
ECCENTRICITY   = .0001132
INCLINATION    = 97.2787
RA_OF_ASC_NODE = 79.0762
ARG_OF_PERICENTER = 100.5501
MEAN_ANOMALY   = 355.6473

EPHEMERIS_TYPE = 0
CLASSIFICATION_TYPE = U
NORAD_CAT_ID   = 67670
ELEMENT_SET_NO = 999
REV_AT_EPOCH   = 327
BSTAR          = -.34719E-3
MEAN_MOTION_DOT = -.66288E-3
MEAN_MOTION_DDOT = 0

CCSDS_OMM_VERS = 2.0
CREATION_DATE  = 
ORIGINATOR     = 

OBJECT_NAME    = STARLINK-36297
OBJECT_ID      = 2026-022Z
CENTER_NAME    = EARTH
REF_FRAME      = TEME
TIME_SYSTEM    = UTC
MEAN_ELEMENT_THEORY = SGP/SGP4

EPOCH          = 2026-02-15T04:00:01.999584
MEAN_MOTION    = 15.80853665
ECCENTRICITY   = .0001352
INCLINATION    = 97.2779
RA_OF_ASC_NODE = 79.0807
ARG_OF_PERICENTER = 87.3684
MEAN_ANOMALY   = 20.0463

EPHEMERIS_TYPE = 0
CLASSIFICATION_TYPE = U
NORAD_CAT_ID   = 67671
ELEMENT_SET_NO = 999
REV_AT_EPOCH   = 327
BSTAR          = -.39142E-3
MEAN_MOTION_DOT = -.74608E-3
MEAN_MOTION_DDOT = 0

CCSDS_OMM_VERS = 2.0
CREATION_DATE  = 
ORIGINATOR     = 

OBJECT_NAME    = STARLINK-36616
OBJECT_ID      = 2026-022AA
CENTER_NAME    = EARTH
REF_FRAME      = TEME
TIME_SYSTEM    = UTC
MEAN_ELEMENT_THEORY = SGP/SGP4

EPOCH          = 2026-02-15T04:00:01.999584
MEAN_MOTION    = 15.80942909
ECCENTRICITY   = .0001324
INCLINATION    = 97.2782
RA_OF_ASC_NODE = 79.0786
ARG_OF_PERICENTER = 68.9337
MEAN_ANOMALY   = 33.2334

EPHEMERIS_TYPE = 0
CLASSIFICATION_TYPE = U
NORAD_CAT_ID   = 67672
ELEMENT_SET_NO = 999
REV_AT_EPOCH   = 327
BSTAR          = -.15722E-2
MEAN_MOTION_DOT = -.293111E-2
MEAN_MOTION_DDOT = 0

CCSDS_OMM_VERS = 2.0
CREATION_DATE  = 
ORIGINATOR     = 

OBJECT_NAME    = COSMOS 2600
OBJECT_ID      = 2026-023A
CENTER_NAME    = EARTH
REF_FRAME      = TEME
TIME_SYSTEM    = UTC
MEAN_ELEMENT_THEORY = SGP/SGP4

EPOCH          = 2026-02-15T03:31:45.196032
MEAN_MOTION    = 15.82347194
ECCENTRICITY   = .0001618
INCLINATION    = 96.6495
RA_OF_ASC_NODE = 122.4948
ARG_OF_PERICENTER = 58.6934
MEAN_ANOMALY   = 301.4495

EPHEMERIS_TYPE = 0
CLASSIFICATION_TYPE = U
NORAD_CAT_ID   = 67674
ELEMENT_SET_NO = 999
REV_AT_EPOCH   = 148
BSTAR          = .30039E-3
MEAN_MOTION_DOT = .62038E-3
MEAN_MOTION_DDOT = 0

CCSDS_OMM_VERS = 2.0
CREATION_DATE  = 
ORIGINATOR     = 

OBJECT_NAME    = 2026-023B
OBJECT_ID      = 2026-023B
CENTER_NAME    = EARTH
REF_FRAME      = TEME
TIME_SYSTEM    = UTC
MEAN_ELEMENT_THEORY = SGP/SGP4

EPOCH          = 2026-02-15T04:18:41.644224
MEAN_MOTION    = 15.22410678
ECCENTRICITY   = .0017605
INCLINATION    = 96.6407
RA_OF_ASC_NODE = 121.7382
ARG_OF_PERICENTER = 210.9089
MEAN_ANOMALY   = 149.1114

EPHEMERIS_TYPE = 0
CLASSIFICATION_TYPE = U
NORAD_CAT_ID   = 67675
ELEMENT_SET_NO = 999
REV_AT_EPOCH   = 143
BSTAR          = .32633E-3
MEAN_MOTION_DOT = .7515E-4
MEAN_MOTION_DDOT = 0

CCSDS_OMM_VERS = 2.0
CREATION_DATE  = 
ORIGINATOR     = 

OBJECT_NAME    = 2026-023C
OBJECT_ID      = 2026-023C
CENTER_NAME    = EARTH
REF_FRAME      = TEME
TIME_SYSTEM    = UTC
MEAN_ELEMENT_THEORY = SGP/SGP4

EPOCH          = 2026-02-15T04:18:11.835360
MEAN_MOTION    = 15.22486137
ECCENTRICITY   = .0018837
INCLINATION    = 96.6442
RA_OF_ASC_NODE = 121.7511
ARG_OF_PERICENTER = 200.3279
MEAN_ANOMALY   = 159.7211

EPHEMERIS_TYPE = 0
CLASSIFICATION_TYPE = U
NORAD_CAT_ID   = 67676
ELEMENT_SET_NO = 999
REV_AT_EPOCH   = 159
BSTAR          = .48856E-3
MEAN_MOTION_DOT = .11318E-3
MEAN_MOTION_DDOT = 0

