STARLINK-36404          
1 67664U 26022S   26046.16668981 -.01960373  00000+0 -11548-1 0  9994
2 67664  97.2790  79.0582 0001681  61.0692 352.8369 15.81213199  3241
STARLINK-36399          
1 67665U 26022T   26046.16668981 -.02032405  00000+0 -12074-1 0  9997
2 67665  97.2792  79.0608 0001740  61.6950 356.7680 15.81154042  3242
STARLINK-36365          
1 67666U 26022U   26046.16668981 -.01966206  00000+0 -11535-1 0  9993
2 67666  97.2793  79.0641 0001180  70.6921 354.8153 15.81316503  3276
STARLINK-36622          
1 67667U 26022V   26046.16668981 -.01300906  00000+0 -75377-2 0  9998
2 67667  97.2803  79.0670 0001206  49.6218  23.4672 15.81308849  3274
STARLINK-36625          
1 67668U 26022W   26046.16668981 -.01369308  00000+0 -79949-2 0  9999
2 67668  97.2800  79.0703 0001913  51.7697  29.6721 15.81291499  3274
STARLINK-36639          
1 67669U 26022X   26046.16668981 -.00599038  00000+0 -33080-2 0  9990
2 67669  97.2788  79.0740 0001988  79.3743  10.0606 15.81061523  3270
STARLINK-36596          
1 67670U 26022Y   26046.16668981 -.00066288  00000+0 -34719-3 0  9999
2 67670  97.2787  79.0762 0001132 100.5501 355.6473 15.80864734  3279
STARLINK-36297          
1 67671U 26022Z   26046.16668981 -.00074608  00000+0 -39142-3 0  9990
2 67671  97.2779  79.0807 0001352  87.3684  20.0463 15.80853665  3272
STARLINK-36616          
1 67672U 26022AA  26046.16668981 -.00293111  00000+0 -15722-2 0  9990
2 67672  97.2782  79.0786 0001324  68.9337  33.2334 15.80942909  3275
COSMOS 2600             
1 67674U 26023A   26046.14705088  .00062038  00000+0  30039-3 0  9990
2 67674  96.6495 122.4948 0001618  58.6934 301.4495 15.82347194  1485
2026-023B               
1 67675U 26023B   26046.17964866  .00007515  00000+0  32633-3 0  9996
2 67675  96.6407 121.7382 0017605 210.9089 149.1114 15.22410678  1432
2026-023C               
1 67676U 26023C   26046.17930365  .00011318  00000+0  48856-3 0  9994
2 67676  96.6442 121.7511 0018837 200.3279 159.7211 15.22486137  1593
